[{"OBJECT_NAME":"SL-12 R/B(2)","OBJECT_ID":"2000-019D","EPOCH":"2026-04-04T11:54:38.784672","MEAN_MOTION":0.99562585,"ECCENTRICITY":0.001501,"INCLINATION":14.7119,"RA_OF_ASC_NODE":2.4564,"ARG_OF_PERICENTER":314.073,"MEAN_ANOMALY":249.5143,"EPHEMERIS_TYPE":0,"CLASSIFICATION_TYPE":"U","NORAD_CAT_ID":26246,"ELEMENT_SET_NO":999,"REV_AT_EPOCH":9436,"BSTAR":0,"MEAN_MOTION_DOT":-6.0e-8,"MEAN_MOTION_DDOT":0},{"OBJECT_NAME":"GALAXY 4R (G-4R)","OBJECT_ID":"2000-020A","EPOCH":"2026-04-04T08:50:47.090976","MEAN_MOTION":0.99828582,"ECCENTRICITY":0.00051572,"INCLINATION":12.65,"RA_OF_ASC_NODE":24.6106,"ARG_OF_PERICENTER":249.3174,"MEAN_ANOMALY":303.0436,"EPHEMERIS_TYPE":0,"CLASSIFICATION_TYPE":"U","NORAD_CAT_ID":26298,"ELEMENT_SET_NO":999,"REV_AT_EPOCH":9488,"BSTAR":0,"MEAN_MOTION_DOT":-2.5e-7,"MEAN_MOTION_DDOT":0},{"OBJECT_NAME":"USA 149 (DSP 20)","OBJECT_ID":"2000-024A","EPOCH":"2026-04-04T13:15:38.706912","MEAN_MOTION":1.00267836,"ECCENTRICITY":0.00016196,"INCLINATION":13.1164,"RA_OF_ASC_NODE":12.3719,"ARG_OF_PERICENTER":350.2382,"MEAN_ANOMALY":223.9079,"EPHEMERIS_TYPE":0,"CLASSIFICATION_TYPE":"U","NORAD_CAT_ID":26356,"ELEMENT_SET_NO":999,"REV_AT_EPOCH":3217,"BSTAR":0,"MEAN_MOTION_DOT":9.5e-7,"MEAN_MOTION_DDOT":0},{"OBJECT_NAME":"IUS R/B(2)","OBJECT_ID":"2000-024D","EPOCH":"2026-04-04T03:49:04.848096","MEAN_MOTION":0.99708638,"ECCENTRICITY":0.00052565,"INCLINATION":13.2674,"RA_OF_ASC_NODE":13.1101,"ARG_OF_PERICENTER":180.7507,"MEAN_ANOMALY":179.2053,"EPHEMERIS_TYPE":0,"CLASSIFICATION_TYPE":"U","NORAD_CAT_ID":26359,"ELEMENT_SET_NO":999,"REV_AT_EPOCH":2463,"BSTAR":0,"MEAN_MOTION_DOT":-3.45e-6,"MEAN_MOTION_DDOT":0},{"OBJECT_NAME":"GORIZONT 33","OBJECT_ID":"2000-029A","EPOCH":"2026-04-04T22:40:20.302752","MEAN_MOTION":1.00150546,"ECCENTRICITY":0.00025526,"INCLINATION":13.8403,"RA_OF_ASC_NODE":7.3363,"ARG_OF_PERICENTER":265.8573,"MEAN_ANOMALY":340.1727,"EPHEMERIS_TYPE":0,"CLASSIFICATION_TYPE":"U","NORAD_CAT_ID":26372,"ELEMENT_SET_NO":999,"REV_AT_EPOCH":9469,"BSTAR":0,"MEAN_MOTION_DOT":-1.29e-6,"MEAN_MOTION_DDOT":0},{"OBJECT_NAME":"BREEZE-M R/B","OBJECT_ID":"2000-029B","EPOCH":"2026-04-04T08:41:03.024384","MEAN_MOTION":1.00379996,"ECCENTRICITY":0.02583738,"INCLINATION":13.5163,"RA_OF_ASC_NODE":7.3991,"ARG_OF_PERICENTER":336.3643,"MEAN_ANOMALY":196.9955,"EPHEMERIS_TYPE":0,"CLASSIFICATION_TYPE":"U","NORAD_CAT_ID":26373,"ELEMENT_SET_NO":999,"REV_AT_EPOCH":9469,"BSTAR":0,"MEAN_MOTION_DOT":7.0e-8,"MEAN_MOTION_DDOT":0},{"OBJECT_NAME":"SL-12 R/B(2)","OBJECT_ID":"2000-031D","EPOCH":"2026-04-03T02:18:08.669088","MEAN_MOTION":0.99438974,"ECCENTRICITY":0.00099596,"INCLINATION":14.5902,"RA_OF_ASC_NODE":3.9255,"ARG_OF_PERICENTER":108.9973,"MEAN_ANOMALY":58.4027,"EPHEMERIS_TYPE":0,"CLASSIFICATION_TYPE":"U","NORAD_CAT_ID":26381,"ELEMENT_SET_NO":999,"REV_AT_EPOCH":9356,"BSTAR":0,"MEAN_MOTION_DOT":-2.59e-6,"MEAN_MOTION_DDOT":0},{"OBJECT_NAME":"FENGYUN 2B","OBJECT_ID":"2000-032A","EPOCH":"2026-04-03T23:34:38.525376","MEAN_MOTION":1.0009453,"ECCENTRICITY":0.00038242,"INCLINATION":13.1992,"RA_OF_ASC_NODE":17.4513,"ARG_OF_PERICENTER":298.7373,"MEAN_ANOMALY":247.5556,"EPHEMERIS_TYPE":0,"CLASSIFICATION_TYPE":"U","NORAD_CAT_ID":26382,"ELEMENT_SET_NO":999,"REV_AT_EPOCH":9418,"BSTAR":0,"MEAN_MOTION_DOT":6.3e-7,"MEAN_MOTION_DDOT":0},{"OBJECT_NAME":"TDRS 8","OBJECT_ID":"2000-034A","EPOCH":"2026-04-04T22:18:37.439136","MEAN_MOTION":1.0027046,"ECCENTRICITY":0.00058488,"INCLINATION":12.57,"RA_OF_ASC_NODE":31.9344,"ARG_OF_PERICENTER":329.8279,"MEAN_ANOMALY":251.0016,"EPHEMERIS_TYPE":0,"CLASSIFICATION_TYPE":"U","NORAD_CAT_ID":26388,"ELEMENT_SET_NO":999,"REV_AT_EPOCH":9444,"BSTAR":0,"MEAN_MOTION_DOT":-1.93e-6,"MEAN_MOTION_DDOT":0},{"OBJECT_NAME":"SL-12 R/B(2)","OBJECT_ID":"2000-035D","EPOCH":"2026-04-03T11:25:22.024704","MEAN_MOTION":1.45659509,"ECCENTRICITY":0.52662937,"INCLINATION":61.8016,"RA_OF_ASC_NODE":169.2017,"ARG_OF_PERICENTER":292.5525,"MEAN_ANOMALY":21.1553,"EPHEMERIS_TYPE":0,"CLASSIFICATION_TYPE":"U","NORAD_CAT_ID":26393,"ELEMENT_SET_NO":999,"REV_AT_EPOCH":13700,"BSTAR":0,"MEAN_MOTION_DOT":1.35e-6,"MEAN_MOTION_DDOT":0},{"OBJECT_NAME":"COSMOS 2371","OBJECT_ID":"2000-036A","EPOCH":"2026-04-04T19:59:08.882880","MEAN_MOTION":1.00265815,"ECCENTRICITY":0.00015392,"INCLINATION":13.9529,"RA_OF_ASC_NODE":8.0562,"ARG_OF_PERICENTER":200.3396,"MEAN_ANOMALY":355.6766,"EPHEMERIS_TYPE":0,"CLASSIFICATION_TYPE":"U","NORAD_CAT_ID":26394,"ELEMENT_SET_NO":999,"REV_AT_EPOCH":9430,"BSTAR":0,"MEAN_MOTION_DOT":-7.1e-7,"MEAN_MOTION_DDOT":0},{"OBJECT_NAME":"SL-12 R/B(2)","OBJECT_ID":"2000-036D","EPOCH":"2026-04-03T23:07:28.038144","MEAN_MOTION":1.00200627,"ECCENTRICITY":0.00165893,"INCLINATION":13.9229,"RA_OF_ASC_NODE":7.9393,"ARG_OF_PERICENTER":72.0733,"MEAN_ANOMALY":104.9772,"EPHEMERIS_TYPE":0,"CLASSIFICATION_TYPE":"U","NORAD_CAT_ID":26397,"ELEMENT_SET_NO":999,"REV_AT_EPOCH":4658,"BSTAR":0,"MEAN_MOTION_DOT":0,"MEAN_MOTION_DDOT":0},{"OBJECT_NAME":"CLUSTER II-FM7 (SAMBA)","OBJECT_ID":"2000-041A","EPOCH":"2026-03-31T00:54:20.014560","MEAN_MOTION":0.44796982,"ECCENTRICITY":0.89530667,"INCLINATION":149.3581,"RA_OF_ASC_NODE":38.1493,"ARG_OF_PERICENTER":254.4502,"MEAN_ANOMALY":0.4223,"EPHEMERIS_TYPE":0,"CLASSIFICATION_TYPE":"U","NORAD_CAT_ID":26410,"ELEMENT_SET_NO":999,"REV_AT_EPOCH":1996,"BSTAR":0,"MEAN_MOTION_DOT":2.444e-5,"MEAN_MOTION_DDOT":0},{"OBJECT_NAME":"BLOCK DM-SL R/B","OBJECT_ID":"2000-043B","EPOCH":"2026-04-04T21:24:54.713952","MEAN_MOTION":2.16747351,"ECCENTRICITY":0.67020117,"INCLINATION":1.48,"RA_OF_ASC_NODE":88.4874,"ARG_OF_PERICENTER":235.2534,"MEAN_ANOMALY":261.846,"EPHEMERIS_TYPE":0,"CLASSIFICATION_TYPE":"U","NORAD_CAT_ID":26452,"ELEMENT_SET_NO":999,"REV_AT_EPOCH":20300,"BSTAR":0,"MEAN_MOTION_DOT":-1.18e-6,"MEAN_MOTION_DDOT":0},{"OBJECT_NAME":"FENGYUN 2B AKM","OBJECT_ID":"2000-032C","EPOCH":"2026-04-04T00:03:39.066336","MEAN_MOTION":1.00200779,"ECCENTRICITY":0.002342,"INCLINATION":14.394,"RA_OF_ASC_NODE":6.8202,"ARG_OF_PERICENTER":38.2732,"MEAN_ANOMALY":321.8542,"EPHEMERIS_TYPE":0,"CLASSIFICATION_TYPE":"U","NORAD_CAT_ID":26460,"ELEMENT_SET_NO":999,"REV_AT_EPOCH":12144,"BSTAR":0,"MEAN_MOTION_DOT":-3.3e-7,"MEAN_MOTION_DDOT":0},{"OBJECT_NAME":"CLUSTER II-FM8 (TANGO)","OBJECT_ID":"2000-045B","EPOCH":"2026-04-04T02:40:07.903776","MEAN_MOTION":0.44400104,"ECCENTRICITY":0.89621495,"INCLINATION":149.6837,"RA_OF_ASC_NODE":39.5667,"ARG_OF_PERICENTER":255.7736,"MEAN_ANOMALY":0.6086,"EPHEMERIS_TYPE":0,"CLASSIFICATION_TYPE":"U","NORAD_CAT_ID":26464,"ELEMENT_SET_NO":999,"REV_AT_EPOCH":1997,"BSTAR":0,"MEAN_MOTION_DOT":3.194e-5,"MEAN_MOTION_DDOT":0},{"OBJECT_NAME":"RADUGA-1 5","OBJECT_ID":"2000-049A","EPOCH":"2026-04-04T16:40:43.832064","MEAN_MOTION":1.00230326,"ECCENTRICITY":0.00017292,"INCLINATION":13.9264,"RA_OF_ASC_NODE":8.6123,"ARG_OF_PERICENTER":29.521,"MEAN_ANOMALY":143.7496,"EPHEMERIS_TYPE":0,"CLASSIFICATION_TYPE":"U","NORAD_CAT_ID":26477,"ELEMENT_SET_NO":999,"REV_AT_EPOCH":9368,"BSTAR":0,"MEAN_MOTION_DOT":-3.04e-6,"MEAN_MOTION_DDOT":0}]
