SL-12 R/B(2)            
1 26246U 00019D   26094.49628223 -.00000006  00000+0  00000+0 0  9992
2 26246  14.7119   2.4564 0015010 314.0730 249.5143  0.99562585 94360
GALAXY 4R (G-4R)        
1 26298U 00020A   26094.36860059 -.00000025  00000+0  00000+0 0  9993
2 26298  12.6500  24.6106 0005157 249.3174 303.0436  0.99828582 94889
USA 149 (DSP 20)        
1 26356U 00024A   26094.55253133  .00000095  00000+0  00000+0 0  9998
2 26356  13.1164  12.3719 0001619 350.2382 223.9079  1.00267836 32171
IUS R/B(2)              
1 26359U 00024D   26094.15908389 -.00000345  00000+0  00000+0 0  9996
2 26359  13.2674  13.1101 0005256 180.7507 179.2053  0.99708638 24635
GORIZONT 33             
1 26372U 00029A   26094.94467943 -.00000129  00000+0  00000+0 0  9999
2 26372  13.8403   7.3363 0002552 265.8573 340.1727  1.00150546 94697
BREEZE-M R/B            
1 26373U 00029B   26094.36184056  .00000007  00000+0  00000+0 0  9991
2 26373  13.5163   7.3991 0258373 336.3643 196.9955  1.00379996 94693
SL-12 R/B(2)            
1 26381U 00031D   26093.09593367 -.00000259  00000+0  00000+0 0  9991
2 26381  14.5902   3.9255 0009959 108.9973  58.4027  0.99438974 93568
FENGYUN 2B              
1 26382U 00032A   26093.98239034  .00000063  00000+0  00000+0 0  9991
2 26382  13.1992  17.4513 0003824 298.7373 247.5556  1.00094530 94183
TDRS 8                  
1 26388U 00034A   26094.92959999 -.00000193  00000+0  00000+0 0  9998
2 26388  12.5700  31.9344 0005848 329.8279 251.0016  1.00270460 94449
SL-12 R/B(2)            
1 26393U 00035D   26093.47594936  .00000135  00000+0  00000+0 0  9995
2 26393  61.8016 169.2017 5266293 292.5525  21.1553  1.45659509137008
COSMOS 2371             
1 26394U 00036A   26094.83274170 -.00000071  00000+0  00000+0 0  9993
2 26394  13.9529   8.0562 0001539 200.3396 355.6766  1.00265815 94309
SL-12 R/B(2)            
1 26397U 00036D   26093.96351896  .00000000  00000+0  00000+0 0  9991
2 26397  13.9229   7.9393 0016589  72.0733 104.9772  1.00200627 46588
CLUSTER II-FM7 (SAMBA)  
1 26410U 00041A   26090.03773165  .00002444  00000+0  00000+0 0  9999
2 26410 149.3581  38.1493 8953066 254.4502   0.4223  0.44796982 19968
BLOCK DM-SL R/B         
1 26452U 00043B   26094.89229993 -.00000118  00000+0  00000+0 0  9997
2 26452   1.4800  88.4874 6702011 235.2534 261.8460  2.16747351203002
FENGYUN 2B AKM          
1 26460U 00032C   26094.00253549 -.00000033  00000+0  00000+0 0  9997
2 26460  14.3940   6.8202 0023420  38.2732 321.8542  1.00200779121448
CLUSTER II-FM8 (TANGO)  
1 26464U 00045B   26094.11120259  .00003194  00000+0  00000+0 0  9998
2 26464 149.6837  39.5667 8962149 255.7736   0.6086  0.44400104 19975
RADUGA-1 5              
1 26477U 00049A   26094.69495176 -.00000304  00000+0  00000+0 0  9993
2 26477  13.9264   8.6123 0001729  29.5210 143.7496  1.00230326 93688
